ONEWEB-0228             
1 48780U 21045P   23211.97259442 -.00000110  00000+0 -32693-3 0  9999
2 48780  87.9007 108.7208 0001711  78.1465 281.9857 13.15551051107114
